NORAD_CAT_ID,OBJECT_NAME,OBJECT_TYPE,EPOCH,MEAN_MOTION,ECCENTRICITY,INCLINATION,RA_OF_ASC_NODE,ARG_OF_PERICENTER,MEAN_ANOMALY,BSTAR,MEAN_MOTION_DOT,MEAN_MOTION_DDOT,TLE_LINE0,TLE_LINE1,TLE_LINE2,SEMIMAJOR_AXIS,PERIOD,APOGEE,PERIGEE,DECAYED
55776.0,STARLINK-5810,PAYLOAD,2024-01-20 04:07:03,14.98325812,0.0002785,70.0,29.7018,265.6277,94.4564,-3.5751e-05,-5.19e-06,0.0,0 STARLINK-5810,1 55776U 23028AM  24020.17157147 -.00000519  00000-0 -35751-4 0  9998,2 55776  70.0000  29.7018 0002785 265.6277  94.4564 14.98325812 49775,6950.206,96.107,574.006,570.135,0.0
55776.0,STARLINK-5810,PAYLOAD,2024-01-20 10:31:35,14.98328462,0.0002753,70.0001,29.0284,265.5364,94.5481,-1.2077e-06,-1.07e-06,0.0,0 STARLINK-5810,1 55776U 23028AM  24020.43860929 -.00000107  00000-0 -12077-5 0  9996,2 55776  70.0001  29.0284 0002753 265.5364  94.5481 14.98328462 49813,6950.198,96.107,573.976,570.149,0.0
55776.0,STARLINK-5810,PAYLOAD,2024-01-21 04:09:04,14.98331698,0.0002719,70.0002,27.1771,262.9799,97.1051,2.1289e-05,1.61e-06,0.0,0 STARLINK-5810,1 55776U 23028AM  24021.17296607  .00000161  00000-0  21289-4 0  9996,2 55776  70.0002  27.1771 0002719 262.9799  97.1051 14.98331698 49928,6950.188,96.107,573.942,570.163,0.0
55776.0,STARLINK-5810,PAYLOAD,2024-01-21 05:45:12,14.98331945,0.0002715,70.0003,27.0088,263.5324,96.5526,2.4733e-05,2.02e-06,0.0,0 STARLINK-5810,1 55776U 23028AM  24021.23972585  .00000202  00000-0  24733-4 0  9992,2 55776  70.0003  27.0088 0002715 263.5324  96.5526 14.98331945 49932,6950.187,96.107,573.939,570.165,0.0
55776.0,STARLINK-5810,PAYLOAD,2024-01-21 10:33:36,14.98332969,0.0002695,70.0004,26.5037,263.1586,96.9266,3.6381e-05,3.41e-06,0.0,0 STARLINK-5810,1 55776U 23028AM  24021.44000460  .00000341  00000-0  36381-4 0  9995,2 55776  70.0004  26.5037 0002695 263.1586  96.9266 14.98332969 49969,6950.184,96.107,573.922,570.176,0.0
55776.0,STARLINK-5810,PAYLOAD,2024-01-22 04:11:05,14.98328857,0.0002675,70.0003,24.652,263.5103,96.5751,4.1458e-05,4.02e-06,0.0,0 STARLINK-5810,1 55776U 23028AM  24022.17436635  .00000402  00000-0  41458-4 0  9992,2 55776  70.0003  24.6520 0002675 263.5103  96.5751 14.98328857 50071,6950.196,96.107,573.921,570.202,0.0
55776.0,STARLINK-5810,PAYLOAD,2024-01-22 05:47:13,14.98329204,0.0002662,70.0004,24.4837,263.752,96.3336,4.5551e-05,4.51e-06,0.0,0 STARLINK-5810,1 55776U 23028AM  24022.24112612  .00000451  00000-0  45551-4 0  9998,2 55776  70.0004  24.4837 0002662 263.7520  96.3336 14.98329204 50087,6950.195,96.107,573.91,570.21,0.0
55776.0,STARLINK-5810,PAYLOAD,2024-01-22 10:35:37,14.98330251,0.0002646,70.0005,23.9787,264.3119,95.7739,5.374e-05,5.48e-06,0.0,0 STARLINK-5810,1 55776U 23028AM  24022.44140518  .00000548  00000-0  53740-4 0  9992,2 55776  70.0005  23.9787 0002646 264.3119  95.7739 14.98330251 50117,6950.192,96.107,573.896,570.218,0.0
55776.0,STARLINK-5810,PAYLOAD,2024-01-23 04:13:06,14.98328755,0.0002579,70.0007,22.128,256.81,103.2772,-3.6685e-05,-5.31e-06,0.0,0 STARLINK-5810,1 55776U 23028AM  24023.17576759 -.00000531  00000-0 -36685-4 0  9996,2 55776  70.0007  22.1280 0002579 256.8100 103.2772 14.98328755 50229,6950.197,96.107,573.854,570.269,0.0
55776.0,STARLINK-5810,PAYLOAD,2024-01-23 05:49:14,14.98328002,0.0002579,70.0008,21.9597,256.7617,103.3254,-2.2735e-05,-3.64e-06,0.0,0 STARLINK-5810,1 55776U 23028AM  24023.24252775 -.00000364  00000-0 -22735-4 0  9998,2 55776  70.0008  21.9597 0002579 256.7617 103.3254 14.98328002 50232,6950.199,96.107,573.857,570.272,0.0
55776.0,STARLINK-5810,PAYLOAD,2024-01-23 09:01:30,14.98330044,0.0002558,70.0008,21.6233,255.692,104.3955,-1.9162e-05,-3.22e-06,0.0,0 STARLINK-5810,1 55776U 23028AM  24023.37604632 -.00000322  00000-0 -19162-4 0  9999,2 55776  70.0008  21.6233 0002558 255.6920 104.3955 14.98330044 50258,6950.193,96.107,573.836,570.28,0.0
55776.0,STARLINK-5810,PAYLOAD,2024-01-24 09:03:31,14.98330069,0.0002558,70.0014,19.0998,249.1327,110.9559,-1.132e-05,-2.28e-06,0.0,0 STARLINK-5810,1 55776U 23028AM  24024.37744522 -.00000228  00000-0 -11320-4 0  9996,2 55776  70.0014  19.0998 0002558 249.1327 110.9559 14.98330069 50400,6950.193,96.107,573.836,570.28,0.0
55776.0,STARLINK-5810,PAYLOAD,2024-01-25 09:05:31,14.98333694,0.0002569,70.0017,16.5757,245.9123,114.1767,6.1702e-05,6.43e-06,0.0,0 STARLINK-5810,1 55776U 23028AM  24025.37883997  .00000643  00000-0  61702-4 0  9995,2 55776  70.0017  16.5757 0002569 245.9123 114.1767 14.98333694 50558,6950.181,96.107,573.832,570.261,0.0
55776.0,STARLINK-5810,PAYLOAD,2024-01-26 02:43:00,14.98327969,0.0002542,70.0021,14.7254,240.1828,119.9078,-6.2507e-06,-1.67e-06,0.0,0 STARLINK-5810,1 55776U 23028AM  24026.11320436 -.00000167  00000-0 -62507-5 0  9990,2 55776  70.0021  14.7254 0002542 240.1828 119.9078 14.98327969 50663,6950.199,96.107,573.831,570.297,0.0
55776.0,STARLINK-5810,PAYLOAD,2024-01-26 09:07:33,14.98324982,0.0002543,70.0016,14.0503,253.4217,106.6663,-4.3343e-05,-6.1e-06,0.0,0 STARLINK-5810,1 55776U 23028AM  24026.38024825 -.00000610  00000-0 -43343-4 0  9991,2 55776  70.0016  14.0503 0002543 253.4217 106.6663 14.98324982 50707,6950.208,96.107,573.841,570.306,0.0
55776.0,STARLINK-5810,PAYLOAD,2024-01-27 02:45:01,14.98333351,0.0002663,70.0012,12.1978,258.367,101.719,-3.2438e-05,-4.8e-06,0.0,0 STARLINK-5810,1 55776U 23028AM  24027.11460265 -.00000480  00000-0 -32438-4 0  9993,2 55776  70.0012  12.1978 0002663 258.3670 101.7190 14.98333351 50811,6950.183,96.107,573.898,570.197,0.0
55776.0,STARLINK-5810,PAYLOAD,2024-01-27 09:09:33,14.98332215,0.0002672,70.0012,11.5239,259.5346,100.5512,-4.1164e-05,-5.84e-06,0.0,0 STARLINK-5810,1 55776U 23028AM  24027.38164335 -.00000584  00000-0 -41164-4 0  9992,2 55776  70.0012  11.5239 0002672 259.5346 100.5512 14.98332215 50854,6950.186,96.107,573.908,570.194,0.0
55776.0,STARLINK-5810,PAYLOAD,2024-01-28 04:23:10,14.98328782,0.0002748,70.001,9.5035,261.9232,98.1616,2.9001e-05,2.53e-06,0.0,0 STARLINK-5810,1 55776U 23028AM  24028.18276322  .00000253  00000-0  29001-4 0  9998,2 55776  70.0010   9.5035 0002748 261.9232  98.1616 14.98328782 50972,6950.197,96.107,573.972,570.152,0.0
55776.0,STARLINK-5810,PAYLOAD,2024-01-28 07:35:26,14.98330009,0.0002722,70.0011,9.167,261.7975,98.2876,4.2623e-05,4.16e-06,0.0,0 STARLINK-5810,1 55776U 23028AM  24028.31628211  .00000416  00000-0  42623-4 0  9997,2 55776  70.0011   9.1670 0002722 261.7975  98.2876 14.98330009 50994,6950.193,96.107,573.95,570.166,0.0
55776.0,STARLINK-5810,PAYLOAD,2024-01-28 22:00:39,14.98330198,0.0002637,70.0014,7.6523,260.0471,100.039,1.6268e-05,1.01e-06,0.0,0 STARLINK-5810,1 55776U 23028AM  24028.91712251  .00000101  00000-0  16268-4 0  9998,2 55776  70.0014   7.6523 0002637 260.0471 100.0390 14.98330198 51088,6950.192,96.107,573.89,570.225,0.0
55776.0,STARLINK-5810,PAYLOAD,2024-01-29 07:37:27,14.98330387,0.0002623,70.0014,6.6422,259.0816,101.0048,1.8327e-05,1.26e-06,0.0,0 STARLINK-5810,1 55776U 23028AM  24029.31768217  .00000126  00000-0  18327-4 0  9991,2 55776  70.0014   6.6422 0002623 259.0816 101.0048 14.98330387 51149,6950.192,96.107,573.88,570.234,0.0
55776.0,STARLINK-5810,PAYLOAD,2024-01-30 07:39:29,14.98326402,0.0002529,70.0019,4.1179,256.1797,103.9081,-3.2386e-05,-4.79e-06,0.0,0 STARLINK-5810,1 55776U 23028AM  24030.31908681 -.00000479  00000-0 -32386-4 0  9998,2 55776  70.0019   4.1179 0002529 256.1797 103.9081 14.98326402 51294,6950.204,96.107,573.827,570.311,0.0
55776.0,STARLINK-5810,PAYLOAD,2024-01-31 01:16:57,14.9833137,0.0002774,70.001,2.2647,267.1537,92.9304,5.6811e-06,-2.5e-07,0.0,0 STARLINK-5810,1 55776U 23028AM  24031.05344282 -.00000025  00000-0  56811-5 0  9997,2 55776  70.0010   2.2647 0002774 267.1537  92.9304 14.98331370 51408,6950.189,96.107,573.982,570.126,0.0
55776.0,STARLINK-5810,PAYLOAD,2024-01-31 07:41:29,14.98332141,0.0002766,70.0011,1.5915,266.6424,93.4419,1.5919e-05,9.7e-07,0.0,0 STARLINK-5810,1 55776U 23028AM  24031.32048185  .00000097  00000-0  15919-4 0  9991,2 55776  70.0011   1.5915 0002766 266.6424  93.4419 14.98332141 51443,6950.186,96.107,573.974,570.129,0.0
55776.0,STARLINK-5810,PAYLOAD,2024-01-31 22:06:42,14.98329223,0.0002785,70.0013,0.076,269.2697,90.8143,1.4156e-05,7.6e-07,0.0,0 STARLINK-5810,1 55776U 23028AM  24031.92132405  .00000076  00000-0  14156-4 0  9995,2 55776  70.0013   0.0760 0002785 269.2697  90.8143 14.98329223 51531,6950.195,96.107,573.996,570.125,0.0
55776.0,STARLINK-5810,PAYLOAD,2024-02-01 01:18:58,14.98328345,0.0002821,70.0011,359.7401,268.5237,91.5599,8.8142e-06,1.2e-07,0.0,0 STARLINK-5810,1 55776U 23028AM  24032.05484466  .00000012  00000-0  88142-5 0  9994,2 55776  70.0011 359.7401 0002821 268.5237  91.5599 14.98328345 51557,6950.198,96.107,574.024,570.102,0.0
55776.0,STARLINK-5810,PAYLOAD,2024-02-01 07:43:30,14.9832964,0.00028,70.0012,359.0669,268.2393,91.8446,2.322e-05,1.84e-06,0.0,0 STARLINK-5810,1 55776U 23028AM  24032.32188353  .00000184  00000-0  23220-4 0  9995,2 55776  70.0012 359.0669 0002800 268.2393  91.8446 14.98329640 51591,6950.194,96.107,574.005,570.113,0.0
55776.0,STARLINK-5810,PAYLOAD,2024-02-02 04:33:15,14.98335458,0.000275,70.0012,356.8794,264.4163,95.6683,3.9317e-05,3.76e-06,0.0,0 STARLINK-5810,1 55776U 23028AM  24033.18975760  .00000376  00000-0  39317-4 0  9993,2 55776  70.0012 356.8794 0002750 264.4163  95.6683 14.98335458 51726,6950.176,96.107,573.952,570.13,0.0
55776.0,STARLINK-5810,PAYLOAD,2024-02-02 07:45:31,14.98336552,0.0002731,70.0013,356.5429,264.0259,96.0589,5.0862e-05,5.14e-06,0.0,0 STARLINK-5810,1 55776U 23028AM  24033.32327606  .00000514  00000-0  50862-4 0  9991,2 55776  70.0013 356.5429 0002731 264.0259  96.0589 14.98336552 51748,6950.173,96.107,573.936,570.14,0.0
55776.0,STARLINK-5810,PAYLOAD,2024-02-02 22:10:44,14.983278,0.0002561,70.0017,355.0273,262.2386,97.8482,-8.2392e-06,-1.91e-06,0.0,0 STARLINK-5810,1 55776U 23028AM  24033.92412219 -.00000191  00000-0 -82392-5 0  9999,2 55776  70.0017 355.0273 0002561 262.2386  97.8482 14.98327800 51832,6950.2,96.107,573.845,570.285,0.0
